[
    {
        "zipCode": "40667",
        "city": "Meerbusch"
    },
    {
        "zipCode": "40210",
        "city": "D\u00fcsseldorf"
    },
    {
        "zipCode": "40211",
        "city": "D\u00fcsseldorf"
    },
    {
        "zipCode": "40212",
        "city": "D\u00fcsseldorf"
    },
    {
        "zipCode": "40213",
        "city": "D\u00fcsseldorf"
    },
    {
        "zipCode": "40215",
        "city": "D\u00fcsseldorf"
    },
    {
        "zipCode": "40217",
        "city": "D\u00fcsseldorf"
    },
    {
        "zipCode": "40219",
        "city": "D\u00fcsseldorf"
    },
    {
        "zipCode": "40221",
        "city": "D\u00fcsseldorf"
    },
    {
        "zipCode": "40223",
        "city": "D\u00fcsseldorf"
    },
    {
        "zipCode": "40225",
        "city": "D\u00fcsseldorf"
    },
    {
        "zipCode": "40227",
        "city": "D\u00fcsseldorf"
    },
    {
        "zipCode": "40229",
        "city": "D\u00fcsseldorf"
    },
    {
        "zipCode": "40231",
        "city": "D\u00fcsseldorf"
    },
    {
        "zipCode": "40233",
        "city": "D\u00fcsseldorf"
    },
    {
        "zipCode": "40235",
        "city": "D\u00fcsseldorf"
    },
    {
        "zipCode": "40237",
        "city": "D\u00fcsseldorf"
    },
    {
        "zipCode": "40239",
        "city": "D\u00fcsseldorf"
    },
    {
        "zipCode": "40468",
        "city": "D\u00fcsseldorf"
    },
    {
        "zipCode": "40470",
        "city": "D\u00fcsseldorf"
    },
    {
        "zipCode": "40472",
        "city": "D\u00fcsseldorf"
    },
    {
        "zipCode": "40474",
        "city": "D\u00fcsseldorf"
    },
    {
        "zipCode": "40476",
        "city": "D\u00fcsseldorf"
    },
    {
        "zipCode": "40477",
        "city": "D\u00fcsseldorf"
    },
    {
        "zipCode": "40479",
        "city": "D\u00fcsseldorf"
    },
    {
        "zipCode": "40489",
        "city": "D\u00fcsseldorf"
    },
    {
        "zipCode": "40545",
        "city": "D\u00fcsseldorf"
    },
    {
        "zipCode": "40547",
        "city": "D\u00fcsseldorf"
    },
    {
        "zipCode": "40549",
        "city": "D\u00fcsseldorf"
    },
    {
        "zipCode": "40589",
        "city": "D\u00fcsseldorf"
    },
    {
        "zipCode": "40591",
        "city": "D\u00fcsseldorf"
    },
    {
        "zipCode": "40593",
        "city": "D\u00fcsseldorf"
    },
    {
        "zipCode": "40595",
        "city": "D\u00fcsseldorf"
    },
    {
        "zipCode": "40597",
        "city": "D\u00fcsseldorf"
    },
    {
        "zipCode": "40599",
        "city": "D\u00fcsseldorf"
    },
    {
        "zipCode": "40625",
        "city": "D\u00fcsseldorf"
    },
    {
        "zipCode": "40627",
        "city": "D\u00fcsseldorf"
    },
    {
        "zipCode": "40629",
        "city": "D\u00fcsseldorf"
    },
    {
        "zipCode": "40721",
        "city": "D\u00fcsseldorf"
    },
    {
        "zipCode": "50374",
        "city": "Erftstadt"
    },
    {
        "zipCode": "51371",
        "city": "Leverkusen"
    },
    {
        "zipCode": "51373",
        "city": "Leverkusen"
    },
    {
        "zipCode": "51375",
        "city": "Leverkusen"
    },
    {
        "zipCode": "51377",
        "city": "Leverkusen"
    },
    {
        "zipCode": "51379",
        "city": "Leverkusen"
    },
    {
        "zipCode": "51381",
        "city": "Leverkusen"
    },
    {
        "zipCode": "40668",
        "city": "Meerbusch"
    },
    {
        "zipCode": "40670",
        "city": "Meerbusch"
    },
    {
        "zipCode": "41747",
        "city": "Viersen"
    },
    {
        "zipCode": "41748",
        "city": "Viersen"
    },
    {
        "zipCode": "41749",
        "city": "Viersen"
    },
    {
        "zipCode": "41751",
        "city": "Viersen"
    }
]